IRIDIUM 155             
1 43573U 18061E   26003.59692683 -.00000084  00000+0 -37090-4 0  9993
2 43573  86.3994 125.5070 0001978  97.5325 262.6096 14.34217995389768
IRIDIUM 154             
1 43574U 18061F   26003.36859350  .00000016  00000+0 -14262-5 0  9996
2 43574  86.3998 125.7285 0002080  93.6603 266.4831 14.34217589389784
IRIDIUM 163             
1 43575U 18061G   26003.62863942  .00000046  00000+0  95128-5 0  9990
2 43575  86.3991 125.5392 0002002 101.1900 258.9521 14.34217771389790
IRIDIUM 156             
1 43576U 18061H   26003.60327047 -.00000033  00000+0 -18784-4 0  9990
2 43576  86.3995 125.5573 0002150  97.4866 262.6574 14.34217048389784
IRIDIUM 164             
1 43577U 18061J   26003.37493611 -.00000050  00000+0 -24921-4 0  9995
2 43577  86.3992 125.6899 0001897  92.2992 267.8421 14.34217330389797
IRIDIUM 159             
1 43578U 18061K   26003.41299114  .00000052  00000+0  11612-4 0  9996
2 43578  86.3995 125.6154 0001869  95.0742 265.0667 14.34217745389767
IRIDIUM 180             
1 43922U 19002A   26003.62179085  .00000153  00000+0  47678-4 0  9995
2 43922  86.3944  62.3911 0002028  96.0883 264.0543 14.34216505365407
IRIDIUM 176             
1 43923U 19002B   26003.60918238  .00001556  00000+0  24292-3 0  9999
2 43923  86.6068  62.3638 0002315  96.8176 263.3305 14.72246844375035
IRIDIUM 168             
1 43924U 19002C   26003.54568161  .00000105  00000+0  30252-4 0  9992
2 43924  86.3948  62.4957 0002190  97.1695 262.9750 14.34218303365378
IRIDIUM 173             
1 43925U 19002D   26003.60277036  .00000462  00000+0  15792-3 0  9995
2 43925  86.3947  62.3673 0002270  99.4324 260.7128 14.34219303365360
IRIDIUM 169             
1 43926U 19002E   26003.61373583  .00000645  00000+0  20428-3 0  9996
2 43926  86.4221  94.0190 0002973 109.8564 250.2955 14.38608555366565
IRIDIUM 172             
1 43927U 19002F   26003.59642255  .00000018  00000+0 -62837-6 0  9997
2 43927  86.3943  62.3771 0001895  97.4495 262.6916 14.34217628365371
IRIDIUM 175             
1 43928U 19002G   26003.53650511  .00000970  00000+0  14987-3 0  9992
2 43928  86.1501   3.5673 0003112  71.2192 288.9362 14.72225454375012
IRIDIUM 171             
1 43929U 19002H   26003.64716417  .00000033  00000+0  46173-5 0  9997
2 43929  86.3952  62.6441 0002295  91.9456 268.2003 14.34217791365371
IRIDIUM 170             
1 43930U 19002J   26003.61534375  .00001181  00000+0  18346-3 0  9991
2 43930  86.6069  62.3647 0002359  88.4483 271.7004 14.72240396375046
IRIDIUM 167             
1 43931U 19002K   26003.64082223  .00000074  00000+0  19339-4 0  9999
2 43931  86.3946  62.3799 0002638  93.3448 266.8050 14.34217922365370
IRIDIUM 181             
1 56726U 23068S   26003.37980969  .00000700  00000+0  20206-3 0  9996
2 56726  86.4529 125.6902 0001767  82.1247 278.0154 14.43311692138667
IRIDIUM 177             
1 56727U 23068T   26003.64506262  .00001741  00000+0  22569-3 0  9997
2 56727  86.1944  46.9230 0002252  89.8498 270.2981 14.80222429142024
IRIDIUM 174             
1 56728U 23068U   26003.60299576  .00001613  00000+0  25198-3 0  9990
2 56728  86.6074  62.5008 0002166  92.1100 268.0366 14.72249236141805
IRIDIUM 178             
1 56729U 23068V   26003.63415020  .00002821  00000+0  36800-3 0  9992
2 56729  86.6542  94.1529 0002509  84.3913 275.7594 14.80204587142023
IRIDIUM 179             
1 56730U 23068W   26003.56120087  .00002693  00000+0  35096-3 0  9995
2 56730  86.6790 102.6734 0002454  92.3622 267.7881 14.80232966142019
